{
    "CCSDS_OMM_VERS": "3.0",
    "COMMENT": "GENERATED VIA SPACE-TRACK.ORG API",
    "CREATION_DATE": "2025-05-22T22:46:20",
    "ORIGINATOR": "18 SPCS",
    "OBJECT_NAME": "QZS-2",
    "OBJECT_ID": "2017-028A",
    "CENTER_NAME": "EARTH",
    "REF_FRAME": "TEME",
    "TIME_SYSTEM": "UTC",
    "MEAN_ELEMENT_THEORY": "SGP4",
    "EPOCH": "2025-05-22T14:51:01.226016",
    "MEAN_MOTION": "1.00291043",
    "ECCENTRICITY": "0.07619580",
    "INCLINATION": "40.0325",
    "RA_OF_ASC_NODE": "248.8590",
    "ARG_OF_PERICENTER": "268.9553",
    "MEAN_ANOMALY": "85.5077",
    "EPHEMERIS_TYPE": "0",
    "CLASSIFICATION_TYPE": "U",
    "NORAD_CAT_ID": "42738",
    "ELEMENT_SET_NO": "999",
    "REV_AT_EPOCH": "2921",
    "BSTAR": "0.00000000000000",
    "MEAN_MOTION_DOT": "-0.00000191",
    "MEAN_MOTION_DDOT": "0.0000000000000",
    "SEMIMAJOR_AXIS": "42159.334",
    "PERIOD": "1435.821",
    "APOAPSIS": "38993.563",
    "PERIAPSIS": "32568.835",
    "OBJECT_TYPE": "PAYLOAD",
    "RCS_SIZE": "LARGE",
    "COUNTRY_CODE": "JPN",
    "LAUNCH_DATE": "2017-06-01",
    "SITE": "TNSTA",
    "DECAY_DATE": null,
    "FILE": "4736379",
    "GP_ID": "288163672",
    "TLE_LINE0": "0 QZS-2",
    "TLE_LINE1": "1 42738U 17028A   25142.61876419 -.00000191  00000-0  00000+0 0  9999",
    "TLE_LINE2": "2 42738  40.0325 248.8590 0761958 268.9553  85.5077  1.00291043 29216"
}